NORAD_CAT_ID,OBJECT_NAME,OBJECT_TYPE,EPOCH,MEAN_MOTION,ECCENTRICITY,INCLINATION,RA_OF_ASC_NODE,ARG_OF_PERICENTER,MEAN_ANOMALY,BSTAR,MEAN_MOTION_DOT,MEAN_MOTION_DDOT,TLE_LINE0,TLE_LINE1,TLE_LINE2,SEMIMAJOR_AXIS,PERIOD,APOGEE,PERIGEE,DECAYED
56770.0,STARLINK-6342,PAYLOAD,2023-11-15 11:45:12,14.98366118,0.000242,69.9993,335.5354,261.2776,98.8109,-0.00063205,-7.633e-05,0.0,0 STARLINK-6342,1 56770U 23078D   23319.48973035 -.00007633  00000-0 -63205-3 0  9992,2 56770  69.9993 335.5354 0002420 261.2776  98.8109 14.98366118 25840,6950.081,96.105,573.628,570.264,0.0
56770.0,STARLINK-6342,PAYLOAD,2023-11-15 18:09:45,14.9833252,0.0002686,69.9991,334.8616,273.6402,86.4449,-5.0425e-05,-6.95e-06,0.0,0 STARLINK-6342,1 56770U 23078D   23319.75677837 -.00000695  00000-0 -50425-4 0  9995,2 56770  69.9991 334.8616 0002686 273.6402  86.4449 14.98332520 25882,6950.185,96.107,573.917,570.183,0.0
56770.0,STARLINK-6342,PAYLOAD,2023-11-16 08:34:58,14.98327005,0.0002391,69.9996,333.3475,264.2753,95.8133,-3.7523e-06,-1.38e-06,0.0,0 STARLINK-6342,1 56770U 23078D   23320.35762056 -.00000138  00000-0 -37523-5 0  9998,2 56770  69.9996 333.3475 0002391 264.2753  95.8133 14.98327005 25710,6950.202,96.107,573.729,570.405,0.0
56770.0,STARLINK-6342,PAYLOAD,2023-11-16 18:11:46,14.98342848,0.0002678,69.9994,332.337,273.8132,86.272,-0.00028932,-3.544e-05,0.0,0 STARLINK-6342,1 56770U 23078D   23320.75817693 -.00003544  00000-0 -28932-3 0  9996,2 56770  69.9994 332.3370 0002678 273.8132  86.2720 14.98342848 26030,6950.153,96.106,573.879,570.157,0.0
56770.0,STARLINK-6342,PAYLOAD,2023-11-17 00:36:19,14.98301766,0.0002599,70.0002,331.6628,272.9241,87.1621,0.00039208,4.585e-05,0.0,0 STARLINK-6342,1 56770U 23078D   23321.02522665  .00004585  00000-0  39208-3 0  9991,2 56770  70.0002 331.6628 0002599 272.9241  87.1621 14.98301766 26072,6950.28,96.109,573.952,570.339,0.0
56770.0,STARLINK-6342,PAYLOAD,2023-11-17 10:13:07,14.98325628,0.0002375,69.9991,330.6524,281.3449,78.7443,1.1303e-05,4.2e-07,0.0,0 STARLINK-6342,1 56770U 23078D   23321.42578343  .00000042  00000-0  11303-4 0  9990,2 56770  69.9991 330.6524 0002375 281.3449  78.7443 14.98325628 26134,6950.206,96.107,573.722,570.421,0.0
56770.0,STARLINK-6342,PAYLOAD,2023-11-18 10:15:08,14.98324755,0.0002458,70.0005,328.127,255.2015,104.8871,-6.7088e-06,-1.73e-06,0.0,0 STARLINK-6342,1 56770U 23078D   23322.42718243 -.00000173  00000-0 -67088-5 0  9995,2 56770  70.0005 328.1270 0002458 255.2015 104.8871 14.98324755 26286,6950.209,96.107,573.782,570.366,0.0
56770.0,STARLINK-6342,PAYLOAD,2023-11-18 18:15:48,14.9832792,0.0002435,70.0007,327.2855,272.8329,87.2552,3.9026e-05,3.73e-06,0.0,0 STARLINK-6342,1 56770U 23078D   23322.76098086  .00000373  00000-0  39026-4 0  9998,2 56770  70.0007 327.2855 0002435 272.8329  87.2552 14.98327920 26079,6950.199,96.107,573.757,570.372,0.0
56770.0,STARLINK-6342,PAYLOAD,2023-11-19 10:17:09,14.98323731,0.0002583,70.0,325.6027,271.1159,88.9704,5.4681e-05,5.59e-06,0.0,0 STARLINK-6342,1 56770U 23078D   23323.42858195  .00000559  00000-0  54681-4 0  9997,2 56770  70.0000 325.6027 0002583 271.1159  88.9704 14.98323731 26435,6950.212,96.107,573.873,570.282,0.0
56770.0,STARLINK-6342,PAYLOAD,2023-11-20 03:54:37,14.9833407,0.0002715,69.9987,323.7513,269.331,90.7537,6.2623e-05,6.54e-06,0.0,0 STARLINK-6342,1 56770U 23078D   23324.16293319  .00000654  00000-0  62623-4 0  9991,2 56770  69.9987 323.7513 0002715 269.3310  90.7537 14.98334070 26545,6950.18,96.107,573.932,570.158,0.0
56770.0,STARLINK-6342,PAYLOAD,2023-11-20 08:43:01,14.98326106,0.0002477,70.0001,323.2468,267.3177,92.7699,8.6582e-05,9.4e-06,0.0,0 STARLINK-6342,1 56770U 23078D   23324.36321732  .00000940  00000-0  86582-4 0  9992,2 56770  70.0001 323.2468 0002477 267.3177  92.7699 14.98326106 26310,6950.205,96.107,573.791,570.348,0.0
56770.0,STARLINK-6342,PAYLOAD,2023-11-20 16:43:41,14.98363025,0.0002607,70.0001,322.4047,272.529,87.557,-0.00052976,-6.413e-05,0.0,0 STARLINK-6342,1 56770U 23078D   23324.69700673 -.00006413  00000-0 -52976-3 0  9995,2 56770  70.0001 322.4047 0002607 272.5290  87.5570 14.98363025 26628,6950.091,96.105,573.768,570.144,0.0
56770.0,STARLINK-6342,PAYLOAD,2023-11-21 03:56:38,14.98327547,0.0002744,69.9995,321.2266,268.031,92.0535,5.7106e-06,-2.5e-07,0.0,0 STARLINK-6342,1 56770U 23078D   23325.16433620 -.00000025  00000-0  57106-5 0  9997,2 56770  69.9995 321.2266 0002744 268.0310  92.0535 14.98327547 26690,6950.2,96.107,573.973,570.158,0.0
56770.0,STARLINK-6342,PAYLOAD,2023-11-21 10:21:10,14.98372175,0.0001893,70.0003,320.553,257.6794,102.4153,-0.00079115,-9.53e-05,0.0,0 STARLINK-6342,1 56770U 23078D   23325.43136757 -.00009530  00000-0 -79115-3 0  9991,2 56770  70.0003 320.5530 0001893 257.6794 102.4153 14.98372175 26737,6950.062,96.104,573.243,570.612,0.0
56770.0,STARLINK-6342,PAYLOAD,2023-11-22 03:58:39,14.98329141,0.00022,69.9998,318.7017,257.4068,102.6845,-3.7711e-05,-5.43e-06,0.0,0 STARLINK-6342,1 56770U 23078D   23326.16573551 -.00000543  00000-0 -37711-4 0  9991,2 56770  69.9998 318.7017 0002200 257.4068 102.6845 14.98329141 26848,6950.196,96.107,573.59,570.532,0.0
56770.0,STARLINK-6342,PAYLOAD,2023-11-22 08:47:03,14.98333488,0.0002221,70.0,318.1966,270.9216,89.1689,1.001e-05,2.7e-07,0.0,0 STARLINK-6342,1 56770U 23078D   23326.36601270  .00000027  00000-0  10010-4 0  9991,2 56770  70.0000 318.1966 0002221 270.9216  89.1689 14.98333488 26619,6950.182,96.107,573.591,570.503,0.0
56770.0,STARLINK-6342,PAYLOAD,2023-11-23 04:00:41,14.98320862,0.000275,69.9994,316.1763,261.8416,98.2431,-5.8442e-05,-7.9e-06,0.0,0 STARLINK-6342,1 56770U 23078D   23327.16714151 -.00000790  00000-0 -58442-4 0  9993,2 56770  69.9994 316.1763 0002750 261.8416  98.2431 14.98320862 26998,6950.221,96.108,573.997,570.175,0.0
56770.0,STARLINK-6342,PAYLOAD,2023-11-23 08:49:04,14.98332231,0.0002456,69.9993,315.6709,269.2842,90.8036,-0.00015198,-1.906e-05,0.0,0 STARLINK-6342,1 56770U 23078D   23327.36741749 -.00001906  00000-0 -15198-3 0  9998,2 56770  69.9993 315.6709 0002456 269.2842  90.8036 14.98332231 27026,6950.186,96.107,573.758,570.344,0.0
56770.0,STARLINK-6342,PAYLOAD,2023-11-24 08:51:05,14.98327473,0.0002534,69.9995,313.1466,273.0332,87.0537,3.3252e-06,-5.3e-07,0.0,0 STARLINK-6342,1 56770U 23078D   23328.36881846 -.00000053  00000-0  33252-5 0  9996,2 56770  69.9995 313.1466 0002534 273.0332  87.0537 14.98327473 27177,6950.201,96.107,573.827,570.305,0.0
56770.0,STARLINK-6342,PAYLOAD,2023-11-25 08:53:06,14.9833388,0.0002694,69.9989,310.6211,264.934,95.1512,0.00015765,1.789e-05,0.0,0 STARLINK-6342,1 56770U 23078D   23329.37021098  .00001789  00000-0  15765-3 0  9996,2 56770  69.9989 310.6211 0002694 264.9340  95.1512 14.98333880 27065,6950.181,96.107,573.918,570.174,0.0
56770.0,STARLINK-6342,PAYLOAD,2023-11-25 21:42:10,14.98317225,0.0002643,69.9995,309.2746,276.4338,83.652,0.00042402,4.968e-05,0.0,0 STARLINK-6342,1 56770U 23078D   23329.90428971  .00004968  00000-0  42402-3 0  9996,2 56770  69.9995 309.2746 0002643 276.4338  83.6520 14.98317225 27143,6950.232,96.108,573.934,570.26,0.0
56770.0,STARLINK-6342,PAYLOAD,2023-11-26 08:55:06,14.98337372,0.0002376,69.9995,308.0949,262.8954,97.1935,0.00015373,1.742e-05,0.0,0 STARLINK-6342,1 56770U 23078D   23330.37160551  .00001742  00000-0  15373-3 0  9990,2 56770  69.9995 308.0949 0002376 262.8954  97.1935 14.98337372 27472,6950.17,96.107,573.686,570.384,0.0
56770.0,STARLINK-6342,PAYLOAD,2023-11-27 04:08:45,14.98316366,0.0002615,69.9992,306.0765,263.1491,96.9371,-0.00019055,-2.365e-05,0.0,0 STARLINK-6342,1 56770U 23078D   23331.17274932 -.00002365  00000-0 -19055-3 0  9993,2 56770  69.9992 306.0765 0002615 263.1491  96.9371 14.98316366 27593,6950.235,96.108,573.918,570.283,0.0
56770.0,STARLINK-6342,PAYLOAD,2023-11-27 07:21:01,14.9831831,0.0002786,69.9989,305.7409,259.7218,100.3627,-0.000189,-2.347e-05,0.0,0 STARLINK-6342,1 56770U 23078D   23331.30626864 -.00002347  00000-0 -18900-3 0  9991,2 56770  69.9989 305.7409 0002786 259.7218 100.3627 14.98318310 27356,6950.229,96.108,574.03,570.158,0.0
56770.0,STARLINK-6342,PAYLOAD,2023-11-28 02:34:37,14.98328945,0.0002407,69.9997,303.7185,262.212,97.8766,-1.5591e-05,-2.79e-06,0.0,0 STARLINK-6342,1 56770U 23078D   23332.10737926 -.00000279  00000-0 -15591-4 0  9998,2 56770  69.9997 303.7185 0002407 262.2120  97.8766 14.98328945 27736,6950.196,96.107,573.734,570.388,0.0
56770.0,STARLINK-6342,PAYLOAD,2023-11-28 08:59:09,14.98335036,0.000223,70.0005,303.0462,260.6803,99.4104,7.0167e-05,7.44e-06,0.0,0 STARLINK-6342,1 56770U 23078D   23332.37441379  .00000744  00000-0  70167-4 0  9996,2 56770  70.0005 303.0462 0002230 260.6803  99.4104 14.98335036 27771,6950.177,96.107,573.592,570.492,0.0
56770.0,STARLINK-6342,PAYLOAD,2023-11-29 04:12:46,14.98322375,0.0002646,70.0021,301.0313,215.9419,144.1562,0.00021467,2.469e-05,0.0,0 STARLINK-6342,1 56770U 23078D   23333.17553609  .00002469  00000-0  21467-3 0  9999,2 56770  70.0021 301.0313 0002646 215.9419 144.1562 14.98322375 27890,6950.216,96.107,573.92,570.242,0.0
56770.0,STARLINK-6342,PAYLOAD,2023-11-29 07:25:02,14.98320944,0.0001071,70.0025,300.6932,263.6422,96.4615,0.00023583,2.721e-05,0.0,0 STARLINK-6342,1 56770U 23078D   23333.30906181  .00002721  00000-0  23583-3 0  9993,2 56770  70.0025 300.6932 0001071 263.6422  96.4615 14.98320944 27653,6950.221,96.108,572.83,571.342,0.0
56770.0,STARLINK-6342,PAYLOAD,2023-11-30 02:38:38,14.98336225,0.0002408,70.0005,298.6714,242.9466,117.1448,2.0155e-05,1.48e-06,0.0,0 STARLINK-6342,1 56770U 23078D   23334.11017046  .00000148  00000-0  20155-4 0  9990,2 56770  70.0005 298.6714 0002408 242.9466 117.1448 14.98336225 28035,6950.174,96.107,573.712,570.365,0.0
56770.0,STARLINK-6342,PAYLOAD,2023-12-01 04:16:48,14.98318518,0.0002378,70.0023,295.981,219.8532,140.2453,-0.00012929,-1.635e-05,0.0,0 STARLINK-6342,1 56770U 23078D   23335.17834305 -.00001635  00000-0 -12929-3 0  9995,2 56770  70.0023 295.9810 0002378 219.8532 140.2453 14.98318518 28190,6950.228,96.108,573.746,570.441,0.0
